{
  "norad_id": 64824,
  "name": "KUIPER-00077",
  "history": [
    {
      "epoch": "2026-05-06T12:01:09.452640Z",
      "apogee_km": 630.1224009879606,
      "perigee_km": 628.9459531507555,
      "latitude_deg": -1.3974851537416596e-05,
      "longitude_deg": -2.183733591371976,
      "height_km": 630.3320432777327,
      "semi_major_axis_km": 7007.671177069358,
      "eccentricity": 8.394e-05,
      "inclination_deg": 51.9039,
      "raan_deg": 42.4662,
      "arg_perigee_deg": 95.0485,
      "mean_anomaly_deg": 265.0573,
      "mean_motion_rev_day": 14.7993346
    },
    {
      "epoch": "2026-05-07T18:48:45.878112Z",
      "apogee_km": 630.1712153607759,
      "perigee_km": 628.849573062228,
      "latitude_deg": -8.308142787499154e-06,
      "longitude_deg": -111.023948704017,
      "height_km": 630.3587025743982,
      "semi_major_axis_km": 7007.647394211502,
      "eccentricity": 9.43e-05,
      "inclination_deg": 51.9021,
      "raan_deg": 36.7924,
      "arg_perigee_deg": 98.925,
      "mean_anomaly_deg": 261.1819,
      "mean_motion_rev_day": 14.79940994
    },
    {
      "epoch": "2026-05-08T11:01:11.004960Z",
      "apogee_km": 630.1323682534721,
      "perigee_km": 628.8569792888457,
      "latitude_deg": 5.541591398997794e-07,
      "longitude_deg": 2.219763960929504,
      "height_km": 630.3832481680249,
      "semi_major_axis_km": 7007.631673771159,
      "eccentricity": 9.1e-05,
      "inclination_deg": 51.9018,
      "raan_deg": 33.8064,
      "arg_perigee_deg": 102.9365,
      "mean_anomaly_deg": 257.1699,
      "mean_motion_rev_day": 14.79945974
    },
    {
      "epoch": "2026-05-08T23:59:07.066176Z",
      "apogee_km": 630.1276404178716,
      "perigee_km": 628.8434235126642,
      "latitude_deg": 2.772948543562613e-05,
      "longitude_deg": 164.815118084934,
      "height_km": 630.3468397280079,
      "semi_major_axis_km": 7007.622531965268,
      "eccentricity": 9.163e-05,
      "inclination_deg": 51.9022,
      "raan_deg": 31.4178,
      "arg_perigee_deg": 100.3601,
      "mean_anomaly_deg": 259.7465,
      "mean_motion_rev_day": 14.7994887
    },
    {
      "epoch": "2026-05-10T18:07:27.236640Z",
      "apogee_km": 630.0471187491012,
      "perigee_km": 629.0590344483007,
      "latitude_deg": 1.979855112438625e-05,
      "longitude_deg": -116.76431905180968,
      "height_km": 630.4412158466323,
      "semi_major_axis_km": 7007.6900765987,
      "eccentricity": 7.05e-05,
      "inclination_deg": 51.903,
      "raan_deg": 23.653,
      "arg_perigee_deg": 106.696,
      "mean_anomaly_deg": 253.408,
      "mean_motion_rev_day": 14.79927473
    },
    {
      "epoch": "2026-05-11T20:03:21.078432Z",
      "apogee_km": 630.1470666381019,
      "perigee_km": 629.0048094292024,
      "latitude_deg": -1.7126466999286652e-05,
      "longitude_deg": -151.5805628910308,
      "height_km": 630.4780209952464,
      "semi_major_axis_km": 7007.712938033652,
      "eccentricity": 8.15e-05,
      "inclination_deg": 51.9034,
      "raan_deg": 18.8761,
      "arg_perigee_deg": 105.8486,
      "mean_anomaly_deg": 254.2566,
      "mean_motion_rev_day": 14.79920231
    },
    {
      "epoch": "2026-05-12T20:21:59.966208Z",
      "apogee_km": 630.1521335465841,
      "perigee_km": 628.9608256550528,
      "latitude_deg": 1.2887947883186652e-05,
      "longitude_deg": -161.71988063881176,
      "height_km": 630.4703629231003,
      "semi_major_axis_km": 7007.693479600818,
      "eccentricity": 8.5e-05,
      "inclination_deg": 51.9034,
      "raan_deg": 14.3972,
      "arg_perigee_deg": 106.3638,
      "mean_anomaly_deg": 253.7418,
      "mean_motion_rev_day": 14.79926395
    }
  ]
}